DMSP 5D-2 F14 (USA 131) 
1 24753U 97012A   20127.19218428 -.00000010  00000-0  18085-4 0  9995
2 24753  99.0240 143.3719 0008164 332.2036  27.8699 14.15888080192234
NOAA 15                 
1 25338U 98030A   20127.40381849  .00000069  00000-0  47528-4 0  9995
2 25338  98.7205 152.6613 0010886  31.3675 328.8152 14.25962781143244
DMSP 5D-3 F15 (USA 147) 
1 25991U 99067A   20127.19113867 -.00000091  00000-0 -22958-4 0  9997
2 25991  98.9663  98.2439 0009091 216.8701 154.1139 14.16487801 54449
METEOSAT-8 (MSG-1)      
1 27509U 02040B   20127.42132785  .00000130  00000-0  00000+0 0  9996
2 27509   6.6540  54.2729 0001787 351.4401  12.0546  1.00273967 64863
DMSP 5D-3 F16 (USA 172) 
1 28054U 03048A   20127.26331118 -.00000095  00000-0 -26706-4 0  9992
2 28054  98.9094 106.4735 0007404 351.4819  70.7344 14.13660267853829
NOAA 18                 
1 28654U 05018A   20127.44120740  .00000101  00000-0  79442-4 0  9995
2 28654  99.0474 183.4695 0013914 354.1114   5.9891 14.12508112771072
METEOSAT-9 (MSG-2)      
1 28912U 05049B   20127.13174913  .00000010  00000-0  00000-0 0  9992
2 28912   4.3374  70.2852 0001752 354.2512 210.6825  1.00267906 52648
HIMAWARI-7 (MTSAT-2)    
1 28937U 06004A   20127.52550021 -.00000251  00000-0  00000+0 0  9999
2 28937   0.0367  64.4158 0001565   9.1539 125.5125  1.00271288 51960
FORMOSAT-3 FM6          
1 29047U 06011A   20127.25705948 -.00000127  00000-0 -33807-4 0  9999
2 29047  71.9776 196.1149 0049226 136.1053 224.4011 14.28726986735297
FORMOSAT-3 FM1          
1 29048U 06011B   20127.06490824  .00000039  00000-0  31581-4 0  9990
2 29048  71.9650 107.4682 0041832  93.1506 267.4418 14.28695234737758
FORMOSAT-3 FM5          
1 29049U 06011C   20126.92822893  .00000068  00000-0  42952-4 0  9996
2 29049  72.0199 279.1487 0033807 121.6739 238.7702 14.28778004733522
FORMOSAT-3 FM3          
1 29050U 06011D   20127.24687049  .00000100  00000-0  31395-4 0  9992
2 29050  72.0165  68.9128 0048564  39.8888 320.5817 14.58905118750172
FORMOSAT-3 FM4          
1 29051U 06011E   20127.20916796  .00000083  00000-0  48078-4 0  9999
2 29051  72.0047 180.7194 0068398 356.3586   3.7042 14.28806984736157
FORMOSAT-3 FM2          
1 29052U 06011F   20127.42200937  .00000040  00000-0  31727-4 0  9993
2 29052  72.0346 254.3593 0038716  78.5337 282.0144 14.28911328734511
GOES 13                 
1 29155U 06018A   20127.13406528  .00000031  00000-0  00000-0 0  9992
2 29155   0.2405 268.8027 0004136 291.0559 134.0075  1.00272199 20972
METOP-A                 
1 29499U 06044A   20127.56766598  .00000001  00000-0  19746-4 0  9993
2 29499  98.5266 175.7839 0001535  76.4863  48.4015 14.21496857702939
DMSP 5D-3 F17 (USA 191) 
1 29522U 06050A   20127.02961155 -.00000026  00000-0  94030-5 0  9992
2 29522  98.8039 144.0636 0008795 302.1671  57.8648 14.14022786696736
FENGYUN 3A              
1 32958U 08026A   20127.45722098 -.00000010  00000-0  14853-4 0  9999
2 32958  98.4044 115.3738 0009917  97.7717 262.4586 14.18624876618870
FENGYUN 2E              
1 33463U 08066A   20126.93303656 -.00000210  00000-0  00000-0 0  9999
2 33463   4.2538  68.6195 0003415 296.8885 281.0870  1.00277926 41697
NOAA 19                 
1 33591U 09005A   20127.15875742  .00000065  00000-0  60493-4 0  9993
2 33591  99.1965 131.4054 0013777 190.3091 169.7799 14.12406461579163
GOES 14                 
1 35491U 09033A   20127.26517390 -.00000103  00000-0  00000-0 0  9997
2 35491   0.2218  98.0694 0007839 125.5989 352.2054  1.00270651 39734
METEOR-M 1              
1 35865U 09049A   20127.44769174  .00000006  00000-0  21602-4 0  9994
2 35865  98.4369 116.2791 0001711 345.5803  14.5327 14.22236309551941
DMSP 5D-3 F18 (USA 210) 
1 35951U 09057A   20127.19862678  .00000095  00000-0  72952-4 0  9996
2 35951  98.6437 118.5135 0012054 125.4027 234.8273 14.13263083317718
GOES 15                 
1 36411U 10008A   20127.25946825  .00000046  00000-0  00000-0 0  9997
2 36411   0.2156 274.7542 0002543 144.0538 130.8923  1.00269129 37287
COMS 1                  
1 36744U 10032A   20127.44379198 -.00000353  00000-0  00000+0 0  9998
2 36744   0.0118 102.3868 0001314 311.7768  98.5179  1.00272043 36261
FENGYUN 3B              
1 37214U 10059A   20127.51553496  .00000026  00000-0  36609-4 0  9998
2 37214  99.0436 108.6110 0017627  28.8241 331.3900 14.15947093491742
SUOMI NPP               
1 37849U 11061A   20127.47372824 -.00000004  00000-0  18774-4 0  9995
2 37849  98.7344  65.9645 0001317  70.4778  40.3086 14.19550697441667
FENGYUN 2F              
1 38049U 12002A   20126.79459317 -.00000365  00000-0  00000+0 0  9999
2 38049   1.9647  83.3797 0002646  62.5561 116.5972  1.00275607 30498
METEOSAT-10 (MSG-3)     
1 38552U 12035B   20127.20553059  .00000051  00000-0  00000+0 0  9990
2 38552   0.9959   9.7112 0000856  29.2269 268.7079  1.00271692 28823
METOP-B                 
1 38771U 12049A   20127.19132524  .00000003  00000-0  21138-4 0  9993
2 38771  98.6951 187.1344 0002169 112.6671 339.4137 14.21491758396028
FENGYUN 3C              
1 39260U 13052A   20127.43672854 -.00000015  00000-0  13502-4 0  9994
2 39260  98.5545 179.4822 0010564 342.8798  17.2019 14.15837330342675
METEOR-M 2              
1 40069U 14037A   20126.65202808 -.00000042  00000-0  13670-6 0  9996
2 40069  98.5071 165.7965 0006707  53.4504 306.7289 14.20671999302133
HIMAWARI-8              
1 40267U 14060A   20127.23093635 -.00000285  00000-0  00000-0 0  9999
2 40267   0.0131 264.4276 0000831 152.9378  30.9814  1.00267852 20361
FENGYUN 2G              
1 40367U 14090A   20126.27621644 -.00000307  00000-0  00000-0 0  9998
2 40367   1.9810  95.1551 0003157 346.3051 340.9615  1.00265087 19631
METEOSAT-11 (MSG-4)     
1 40732U 15034A   20127.23729830 -.00000011  00000-0  00000-0 0  9998
2 40732   0.4642 213.1996 0001010 260.3527 196.3228  1.00276824 17652
ELEKTRO-L 2             
1 41105U 15074A   20126.74910372 -.00000104  00000-0  00000-0 0  9998
2 41105   1.0976  97.7899 0002604 330.4566 141.4729  1.00270839 16122
HIMAWARI-9              
1 41836U 16064A   20127.51811698 -.00000284  00000-0  00000+0 0  9994
2 41836   0.0411 108.8380 0000397 276.6468 166.6372  1.00271225 12910
GOES 16                 
1 41866U 16071A   20127.46824497 -.00000257  00000-0  00000+0 0  9990
2 41866   0.0127 272.6158 0001187 167.2557 238.2773  1.00272796 12726
FENGYUN 4A              
1 41882U 16077A   20127.23329825 -.00000339  00000-0  00000+0 0  9995
2 41882   0.1523 287.7031 0005471 215.4449 270.1121  1.00269404 12597
CYGFM05                 
1 41884U 16078A   20127.23236871  .00000313  00000-0  18308-4 0  9992
2 41884  34.9571 322.2199 0015377  25.4285 334.7181 15.14608021187701
CYGFM04                 
1 41885U 16078B   20127.21693348  .00000324  00000-0  18625-4 0  9991
2 41885  34.9502 315.7401 0013632  34.9743 325.1861 15.15117917187760
CYGFM02                 
1 41886U 16078C   20126.94619336  .00000292  00000-0  16970-4 0  9991
2 41886  34.9593 319.1253 0014459  28.7199 331.4307 15.15118470187713
CYGFM01                 
1 41887U 16078D   20127.26170864  .00000324  00000-0  18983-4 0  9998
2 41887  34.9538 323.1092 0015806  26.5721 333.5797 15.14421064187691
CYGFM08                 
1 41888U 16078E   20126.93556123  .00000309  00000-0  17963-4 0  9998
2 41888  34.9508 321.0965 0014942  30.1159 330.0409 15.14835237187672
CYGFM06                 
1 41889U 16078F   20126.92492409  .00000318  00000-0  18311-4 0  9992
2 41889  34.9588 317.9466 0013415  28.1480 331.9954 15.15112117187715
CYGFM07                 
1 41890U 16078G   20126.90332130  .00000315  00000-0  18175-4 0  9991
2 41890  34.9526 317.1936 0013134  31.1628 328.9861 15.15111453187714
CYGFM03                 
1 41891U 16078H   20126.96449281  .00000308  00000-0  17829-4 0  9991
2 41891  34.9558 317.0466 0012637  30.3177 329.8263 15.15107185187728
FENGYUN 3D              
1 43010U 17072A   20127.50563762  .00000007  00000-0  24246-4 0  9990
2 43010  98.7482  67.3197 0001220 152.4217 207.7015 14.19741686128244
NOAA 20                 
1 43013U 17073A   20127.20590783 -.00000005  00000-0  18261-4 0  9993
2 43013  98.7156  65.8130 0001535  91.3058 268.8294 14.19553036127660
GOES 17                 
1 43226U 18022A   20127.56542206  .00000088  00000-0  00000+0 0  9997
2 43226   0.0123 273.2847 0000760 151.1989 226.7501  1.00272742  8045
FENGYUN 2H              
1 43491U 18050A   20127.54632804 -.00000138  00000-0  00000+0 0  9991
2 43491   0.7578 275.6803 0002566 218.0939   7.0117  1.00274910  7122
METOP-C                 
1 43689U 18087A   20127.49198166 -.00000005  00000-0  17505-4 0  9998
2 43689  98.7013 187.6884 0003337 103.2802 256.8748 14.21489023 77631
GEO-KOMPSAT-2A          
1 43823U 18100A   20126.65423059 -.00000353  00000-0  00000+0 0  9996
2 43823   0.0204  96.7258 0002498 339.5893 151.4329  1.00267683  5269
IOD-1 GEMS              
1 44385U 98067QK  20127.52722733  .00014682  00000-0  19067-3 0  9994
2 44385  51.6396 183.2291 0001501 147.1897 212.9190 15.59060703 47940
METEOR-M2 2             
1 44387U 19038A   20127.40943932 -.00000038  00000-0  23758-5 0  9995
2 44387  98.6162  88.2945 0001791  37.7696 322.3608 14.23678625 43557
